start=new Date('2021-09-15T00:00:00.000Z').valueOf();
sats=[{"RCS_SIZE":"LARGE","TLE_LINE2":"2 47150  53.0559  80.6016 0001799  95.1272 264.9922 15.06390337 45245","ARG_OF_PERICENTER":"95.1272","MEAN_MOTION_DDOT":"0.0000000000000","REF_FRAME":"TEME","CENTER_NAME":"EARTH","PERIAPSIS":"545.997","EPOCH":"2021-09-14T15:30:27.887040","NORAD_CAT_ID":"47150","PERIOD":"95.593","OBJECT_TYPE":"PAYLOAD","MEAN_ELEMENT_THEORY":"SGP4","LAUNCH_DATE":"2020-11-25","FILE":"3115650","ELEMENT_SET_NO":"999","INCLINATION":"53.0559","CLASSIFICATION_TYPE":"U","OBJECT_NAME":"STARLINK-1863","GP_ID":"184724161","MEAN_MOTION_DOT":"0.00001266","COUNTRY_CODE":"US","MEAN_ANOMALY":"264.9922","OBJECT_ID":"2020-088AE","SITE":"AFETR","SEMIMAJOR_AXIS":"6925.378","EPHEMERIS_TYPE":"0","ECCENTRICITY":"0.00017990","TLE_LINE1":"1 47150U 20088AE  21257.64615610  .00001266  00000-0  10389-3 0  9990","BSTAR":"0.00010389000000","APOAPSIS":"548.489","TIME_SYSTEM":"UTC","MEAN_MOTION":"15.06390337","DECAY_DATE":null,"RA_OF_ASC_NODE":"80.6016","REV_AT_EPOCH":"4524"},{"REV_AT_EPOCH":"4512","MEAN_MOTION":"15.06396057","RA_OF_ASC_NODE":"89.6990","DECAY_DATE":null,"APOAPSIS":"548.495","TLE_LINE1":"1 47151U 20088AF  21257.84427259  .00000990  00000-0  85351-4 0  9998","BSTAR":"0.00008535100000","TIME_SYSTEM":"UTC","SEMIMAJOR_AXIS":"6925.361","EPHEMERIS_TYPE":"0","ECCENTRICITY":"0.00018330","SITE":"AFETR","COUNTRY_CODE":"US","MEAN_ANOMALY":"269.7694","OBJECT_ID":"2020-088AF","MEAN_MOTION_DOT":"0.00000990","GP_ID":"184724412","CLASSIFICATION_TYPE":"U","OBJECT_NAME":"STARLINK-1864","FILE":"3115650","ELEMENT_SET_NO":"999","INCLINATION":"53.0550","LAUNCH_DATE":"2020-11-25","PERIOD":"95.592","OBJECT_TYPE":"PAYLOAD","MEAN_ELEMENT_THEORY":"SGP4","PERIAPSIS":"545.956","EPOCH":"2021-09-14T20:15:45.151776","NORAD_CAT_ID":"47151","MEAN_MOTION_DDOT":"0.0000000000000","REF_FRAME":"TEME","CENTER_NAME":"EARTH","ARG_OF_PERICENTER":"90.3505","TLE_LINE2":"2 47151  53.0550  89.6990 0001833  90.3505 269.7694 15.06396057 45123","RCS_SIZE":"LARGE"},{"PERIAPSIS":"545.731","EPOCH":"2021-09-14T19:54:30.991968","NORAD_CAT_ID":"47152","MEAN_MOTION_DDOT":"0.0000000000000","REF_FRAME":"TEME","CENTER_NAME":"EARTH","ARG_OF_PERICENTER":"89.4555","RCS_SIZE":"LARGE","TLE_LINE2":"2 47152  53.0545  89.7784 0002136  89.4555 270.6679 15.06401171 45129","CLASSIFICATION_TYPE":"U","OBJECT_NAME":"STARLINK-1866","FILE":"3115650","ELEMENT_SET_NO":"999","INCLINATION":"53.0545","LAUNCH_DATE":"2020-11-25","PERIOD":"95.592","OBJECT_TYPE":"PAYLOAD","MEAN_ELEMENT_THEORY":"SGP4","SITE":"AFETR","OBJECT_ID":"2020-088AG","COUNTRY_CODE":"US","MEAN_ANOMALY":"270.6679","MEAN_MOTION_DOT":"0.00000054","GP_ID":"184723160","REV_AT_EPOCH":"4512","MEAN_MOTION":"15.06401171","DECAY_DATE":null,"RA_OF_ASC_NODE":"89.7784","TLE_LINE1":"1 47152U 20088AG  21257.82952537  .00000054  00000-0  22566-4 0  9999","TIME_SYSTEM":"UTC","APOAPSIS":"548.689","BSTAR":"0.00002256600000","SEMIMAJOR_AXIS":"6925.345","ECCENTRICITY":"0.00021360","EPHEMERIS_TYPE":"0"},{"CENTER_NAME":"EARTH","REF_FRAME":"TEME","MEAN_MOTION_DDOT":"0.0000000000000","NORAD_CAT_ID":"47153","EPOCH":"2021-09-14T16:06:55.992096","PERIAPSIS":"545.842","RCS_SIZE":"LARGE","TLE_LINE2":"2 47153  53.0557  95.4864 0002022  80.0003 280.1214 15.06390683 45031","ARG_OF_PERICENTER":"80.0003","INCLINATION":"53.0557","ELEMENT_SET_NO":"999","FILE":"3115650","OBJECT_NAME":"STARLINK-1867","CLASSIFICATION_TYPE":"U","MEAN_ELEMENT_THEORY":"SGP4","OBJECT_TYPE":"PAYLOAD","PERIOD":"95.593","LAUNCH_DATE":"2020-11-25","MEAN_ANOMALY":"280.1214","COUNTRY_CODE":"US","OBJECT_ID":"2020-088AH","SITE":"AFETR","GP_ID":"184723410","MEAN_MOTION_DOT":"-0.00000822","RA_OF_ASC_NODE":"95.4864","DECAY_DATE":null,"MEAN_MOTION":"15.06390683","REV_AT_EPOCH":"4503","EPHEMERIS_TYPE":"0","ECCENTRICITY":"0.00020220","SEMIMAJOR_AXIS":"6925.377","APOAPSIS":"548.642","TLE_LINE1":"1 47153U 20088AH  21257.67148139 -.00000822  00000-0 -36305-4 0  9999","TIME_SYSTEM":"UTC","BSTAR":"-0.00003630500000"},{"OBJECT_NAME":"STARLINK-1868","CLASSIFICATION_TYPE":"U","INCLINATION":"53.0564","ELEMENT_SET_NO":"999","FILE":"3115492","LAUNCH_DATE":"2020-11-25","MEAN_ELEMENT_THEORY":"SGP4","OBJECT_TYPE":"PAYLOAD","PERIOD":"95.592","NORAD_CAT_ID":"47154","EPOCH":"2021-09-14T11:15:41.245632","PERIAPSIS":"545.882","CENTER_NAME":"EARTH","REF_FRAME":"TEME","MEAN_MOTION_DDOT":"0.0000000000000","ARG_OF_PERICENTER":"92.4057","TLE_LINE2":"2 47154  53.0564  81.4001 0001932  92.4057 267.7154 15.06398000 45218","RCS_SIZE":"LARGE","REV_AT_EPOCH":"4521","DECAY_DATE":null,"RA_OF_ASC_NODE":"81.4001","MEAN_MOTION":"15.06398000","APOAPSIS":"548.558","TLE_LINE1":"1 47154U 20088AJ  21257.46922738 -.00000756  00000-0 -31857-4 0  9995","TIME_SYSTEM":"UTC","BSTAR":"-0.00003185700000","EPHEMERIS_TYPE":"0","ECCENTRICITY":"0.00019320","SEMIMAJOR_AXIS":"6925.355","SITE":"AFETR","MEAN_ANOMALY":"267.7154","COUNTRY_CODE":"US","OBJECT_ID":"2020-088AJ","MEAN_MOTION_DOT":"-0.00000756","GP_ID":"184697045"},{"LAUNCH_DATE":"2020-11-25","OBJECT_TYPE":"PAYLOAD","PERIOD":"95.592","MEAN_ELEMENT_THEORY":"SGP4","OBJECT_NAME":"STARLINK-1869","CLASSIFICATION_TYPE":"U","FILE":"3115650","INCLINATION":"53.0531","ELEMENT_SET_NO":"999","ARG_OF_PERICENTER":"83.1078","TLE_LINE2":"2 47155  53.0531  99.7426 0001912  83.1078 277.0129 15.06402564 44984","RCS_SIZE":"LARGE","PERIAPSIS":"545.882","NORAD_CAT_ID":"47155","EPOCH":"2021-09-14T20:03:48.330720","REF_FRAME":"TEME","MEAN_MOTION_DDOT":"0.0000000000000","CENTER_NAME":"EARTH","TLE_LINE1":"1 47155U 20088AK  21257.83597605  .00000954  00000-0  82972-4 0  9990","TIME_SYSTEM":"UTC","APOAPSIS":"548.530","BSTAR":"0.00008297200000","SEMIMAJOR_AXIS":"6925.341","EPHEMERIS_TYPE":"0","ECCENTRICITY":"0.00019120","REV_AT_EPOCH":"4498","MEAN_MOTION":"15.06402564","DECAY_DATE":null,"RA_OF_ASC_NODE":"99.7426","MEAN_MOTION_DOT":"0.00000954","GP_ID":"184723913","SITE":"AFETR","COUNTRY_CODE":"US","OBJECT_ID":"2020-088AK","MEAN_ANOMALY":"277.0129"},{"TLE_LINE2":"2 47156  53.0559  36.7873 0002251  39.2028 320.9138 15.37804625 45882","RCS_SIZE":"LARGE","ARG_OF_PERICENTER":"39.2028","REF_FRAME":"TEME","MEAN_MOTION_DDOT":"0.0000000000000","CENTER_NAME":"EARTH","PERIAPSIS":"451.067","NORAD_CAT_ID":"47156","EPOCH":"2021-09-14T21:30:00.682272","OBJECT_TYPE":"PAYLOAD","PERIOD":"93.640","MEAN_ELEMENT_THEORY":"SGP4","LAUNCH_DATE":"2020-11-25","FILE":"3115650","INCLINATION":"53.0559","ELEMENT_SET_NO":"999","OBJECT_NAME":"STARLINK-1870","CLASSIFICATION_TYPE":"U","GP_ID":"184722661","MEAN_MOTION_DOT":"0.00316061","COUNTRY_CODE":"US","MEAN_ANOMALY":"320.9138","OBJECT_ID":"2020-088AL","SITE":"AFETR","SEMIMAJOR_AXIS":"6830.740","ECCENTRICITY":"0.00022510","EPHEMERIS_TYPE":"0","APOAPSIS":"454.142","TLE_LINE1":"1 47156U 20088AL  21257.89584123  .00316061  00000-0  80503-2 0  9993","TIME_SYSTEM":"UTC","BSTAR":"0.00805030000000","MEAN_MOTION":"15.37804625","RA_OF_ASC_NODE":"36.7873","DECAY_DATE":null,"REV_AT_EPOCH":"4588"},{"LAUNCH_DATE":"2020-11-25","OBJECT_TYPE":"PAYLOAD","PERIOD":"95.592","MEAN_ELEMENT_THEORY":"SGP4","OBJECT_NAME":"STARLINK-1871","CLASSIFICATION_TYPE":"U","FILE":"3115650","INCLINATION":"53.0551","ELEMENT_SET_NO":"999","ARG_OF_PERICENTER":"85.8511","TLE_LINE2":"2 47157  53.0551  90.4738 0002043  85.8511 274.2712 15.06396512 45106","RCS_SIZE":"LARGE","PERIAPSIS":"545.809","NORAD_CAT_ID":"47157","EPOCH":"2021-09-14T16:11:35.297376","REF_FRAME":"TEME","MEAN_MOTION_DDOT":"0.0000000000000","CENTER_NAME":"EARTH","BSTAR":"0.00006639000000","TLE_LINE1":"1 47157U 20088AM  21257.67471409  .00000707  00000-0  66390-4 0  9999","APOAPSIS":"548.639","TIME_SYSTEM":"UTC","SEMIMAJOR_AXIS":"6925.359","EPHEMERIS_TYPE":"0","ECCENTRICITY":"0.00020430","REV_AT_EPOCH":"4510","MEAN_MOTION":"15.06396512","RA_OF_ASC_NODE":"90.4738","DECAY_DATE":null,"MEAN_MOTION_DOT":"0.00000707","GP_ID":"184722911","SITE":"AFETR","COUNTRY_CODE":"US","MEAN_ANOMALY":"274.2712","OBJECT_ID":"2020-088AM"},{"COUNTRY_CODE":"US","MEAN_ANOMALY":"269.5051","OBJECT_ID":"2020-088AN","SITE":"AFETR","GP_ID":"184696546","MEAN_MOTION_DOT":"-0.00000456","RA_OF_ASC_NODE":"81.2395","DECAY_DATE":null,"MEAN_MOTION":"15.06390389","REV_AT_EPOCH":"4521","ECCENTRICITY":"0.00019240","EPHEMERIS_TYPE":"0","SEMIMAJOR_AXIS":"6925.378","TIME_SYSTEM":"UTC","TLE_LINE1":"1 47158U 20088AN  21257.49872458 -.00000456  00000-0 -11719-4 0  9997","APOAPSIS":"548.575","BSTAR":"-0.00001171900000","CENTER_NAME":"EARTH","MEAN_MOTION_DDOT":"0.0000000000000","REF_FRAME":"TEME","EPOCH":"2021-09-14T11:58:09.803712","NORAD_CAT_ID":"47158","PERIAPSIS":"545.911","TLE_LINE2":"2 47158  53.0548  81.2395 0001924  90.6158 269.5051 15.06390389 45219","RCS_SIZE":"LARGE","ARG_OF_PERICENTER":"90.6158","ELEMENT_SET_NO":"999","INCLINATION":"53.0548","FILE":"3115492","CLASSIFICATION_TYPE":"U","OBJECT_NAME":"STARLINK-1873","MEAN_ELEMENT_THEORY":"SGP4","PERIOD":"95.593","OBJECT_TYPE":"PAYLOAD","LAUNCH_DATE":"2020-11-25"},{"CENTER_NAME":"EARTH","REF_FRAME":"TEME","MEAN_MOTION_DDOT":"0.0000000000000","NORAD_CAT_ID":"47159","EPOCH":"2021-09-14T19:49:12.852480","PERIAPSIS":"546.071","RCS_SIZE":"LARGE","TLE_LINE2":"2 47159  53.0549  89.7992 0001642  98.7163 261.4012 15.06401676 45129","ARG_OF_PERICENTER":"98.7163","INCLINATION":"53.0549","ELEMENT_SET_NO":"999","FILE":"3115650","OBJECT_NAME":"STARLINK-1874","CLASSIFICATION_TYPE":"U","MEAN_ELEMENT_THEORY":"SGP4","OBJECT_TYPE":"PAYLOAD","PERIOD":"95.592","LAUNCH_DATE":"2020-11-25","COUNTRY_CODE":"US","OBJECT_ID":"2020-088AP","MEAN_ANOMALY":"261.4012","SITE":"AFETR","GP_ID":"184724413","MEAN_MOTION_DOT":"0.00000867","RA_OF_ASC_NODE":"89.7992","DECAY_DATE":null,"MEAN_MOTION":"15.06401676","REV_AT_EPOCH":"4512","EPHEMERIS_TYPE":"0","ECCENTRICITY":"0.00016420","SEMIMAJOR_AXIS":"6925.343","TLE_LINE1":"1 47159U 20088AP  21257.82584320  .00000867  00000-0  77115-4 0  9999","BSTAR":"0.00007711500000","APOAPSIS":"548.346","TIME_SYSTEM":"UTC"}];
